ADRAS-J                 
1 58992U 24034A   24238.41087393  .00006186  00000+0  56227-3 0  9995
2 58992  98.2184 214.6337 0043604 178.3225 181.8148 14.94901561 28201
